{
    "type": "FeatureCollection",
    "features": [
        {
            "type": "Feature",
            "properties": {
                "name": "Ampid I",
                "municipality": "San Mateo",
                "province": "Rizal",
                "source": "Google Maps High-Density Trace"
            },
            "geometry": {
                "type": "Polygon",
                "coordinates": [
                    [
                        [
                            121.112071,
                            14.684583
                        ],
                        [
                            121.111589,
                            14.683696
                        ],
                        [
                            121.11119,
                            14.682938
                        ],
                        [
                            121.110588,
                            14.68167
                        ],
                        [
                            121.110227,
                            14.680994
                        ],
                        [
                            121.111337,
                            14.680657
                        ],
                        [
                            121.111538,
                            14.681181
                        ],
                        [
                            121.11201,
                            14.680987
                        ],
                        [
                            121.112639,
                            14.68094
                        ],
                        [
                            121.112523,
                            14.68067
                        ],
                        [
                            121.113036,
                            14.680529
                        ],
                        [
                            121.113198,
                            14.68051
                        ],
                        [
                            121.113527,
                            14.680559
                        ],
                        [
                            121.113633,
                            14.680694
                        ],
                        [
                            121.11395,
                            14.680462
                        ],
                        [
                            121.112791,
                            14.67911
                        ],
                        [
                            121.113227,
                            14.678874
                        ],
                        [
                            121.113615,
                            14.678928
                        ],
                        [
                            121.113997,
                            14.678685
                        ],
                        [
                            121.114505,
                            14.678351
                        ],
                        [
                            121.115052,
                            14.677566
                        ],
                        [
                            121.115111,
                            14.677538
                        ],
                        [
                            121.115194,
                            14.677389
                        ],
                        [
                            121.115264,
                            14.677146
                        ],
                        [
                            121.115385,
                            14.677176
                        ],
                        [
                            121.115453,
                            14.677252
                        ],
                        [
                            121.115714,
                            14.677204
                        ],
                        [
                            121.11588,
                            14.677342
                        ],
                        [
                            121.115986,
                            14.677413
                        ],
                        [
                            121.116078,
                            14.67741
                        ],
                        [
                            121.116219,
                            14.677329
                        ],
                        [
                            121.116405,
                            14.677291
                        ],
                        [
                            121.116744,
                            14.677402
                        ],
                        [
                            121.116916,
                            14.677441
                        ],
                        [
                            121.117053,
                            14.677505
                        ],
                        [
                            121.117137,
                            14.677565
                        ],
                        [
                            121.117332,
                            14.677586
                        ],
                        [
                            121.1178,
                            14.67773
                        ],
                        [
                            121.11835,
                            14.67765
                        ],
                        [
                            121.11888,
                            14.6776
                        ],
                        [
                            121.1194,
                            14.67755
                        ],
                        [
                            121.119699,
                            14.677335
                        ],
                        [
                            121.119919,
                            14.677606
                        ],
                        [
                            121.120435,
                            14.677799
                        ],
                        [
                            121.12057,
                            14.677672
                        ],
                        [
                            121.1209,
                            14.67746
                        ],
                        [
                            121.121247,
                            14.676374
                        ],
                        [
                            121.12285,
                            14.675863
                        ],
                        [
                            121.12295,
                            14.675833
                        ],
                        [
                            121.123415,
                            14.675664
                        ],
                        [
                            121.123538,
                            14.675499
                        ],
                        [
                            121.123479,
                            14.675243
                        ],
                        [
                            121.123386,
                            14.67517
                        ],
                        [
                            121.12333,
                            14.675082
                        ],
                        [
                            121.123336,
                            14.674932
                        ],
                        [
                            121.123471,
                            14.674848
                        ],
                        [
                            121.123541,
                            14.674852
                        ],
                        [
                            121.123597,
                            14.674788
                        ],
                        [
                            121.123603,
                            14.674673
                        ],
                        [
                            121.123664,
                            14.674666
                        ],
                        [
                            121.123761,
                            14.674695
                        ],
                        [
                            121.123915,
                            14.674842
                        ],
                        [
                            121.124053,
                            14.674789
                        ],
                        [
                            121.124037,
                            14.674652
                        ],
                        [
                            121.123883,
                            14.674353
                        ],
                        [
                            121.123905,
                            14.67427
                        ],
                        [
                            121.124313,
                            14.674157
                        ],
                        [
                            121.124469,
                            14.67409
                        ],
                        [
                            121.124697,
                            14.674091
                        ],
                        [
                            121.124728,
                            14.674169
                        ],
                        [
                            121.124755,
                            14.674262
                        ],
                        [
                            121.125185,
                            14.673944
                        ],
                        [
                            121.12528,
                            14.674032
                        ],
                        [
                            121.125385,
                            14.674068
                        ],
                        [
                            121.125577,
                            14.674105
                        ],
                        [
                            121.125558,
                            14.674687
                        ],
                        [
                            121.125495,
                            14.67528
                        ],
                        [
                            121.124963,
                            14.67549
                        ],
                        [
                            121.125009,
                            14.676367
                        ],
                        [
                            121.124198,
                            14.67738
                        ],
                        [
                            121.124843,
                            14.678374
                        ],
                        [
                            121.124888,
                            14.678732
                        ],
                        [
                            121.124685,
                            14.678862
                        ],
                        [
                            121.124612,
                            14.67964
                        ],
                        [
                            121.12585,
                            14.679571
                        ],
                        [
                            121.125981,
                            14.680021
                        ],
                        [
                            121.125871,
                            14.68021
                        ],
                        [
                            121.12559,
                            14.680595
                        ],
                        [
                            121.125638,
                            14.681139
                        ],
                        [
                            121.126124,
                            14.681541
                        ],
                        [
                            121.126901,
                            14.682126
                        ],
                        [
                            121.127262,
                            14.682688
                        ],
                        [
                            121.126457,
                            14.683075
                        ],
                        [
                            121.126121,
                            14.683093
                        ],
                        [
                            121.125692,
                            14.683105
                        ],
                        [
                            121.12548,
                            14.683044
                        ],
                        [
                            121.123765,
                            14.683534
                        ],
                        [
                            121.12369,
                            14.683676
                        ],
                        [
                            121.123708,
                            14.683877
                        ],
                        [
                            121.123286,
                            14.684046
                        ],
                        [
                            121.122833,
                            14.684481
                        ],
                        [
                            121.122726,
                            14.684701
                        ],
                        [
                            121.122519,
                            14.684869
                        ],
                        [
                            121.122308,
                            14.685028
                        ],
                        [
                            121.122303,
                            14.685217
                        ],
                        [
                            121.122665,
                            14.685424
                        ],
                        [
                            121.122815,
                            14.685407
                        ],
                        [
                            121.122906,
                            14.685521
                        ],
                        [
                            121.122891,
                            14.685635
                        ],
                        [
                            121.122754,
                            14.685759
                        ],
                        [
                            121.12263,
                            14.685704
                        ],
                        [
                            121.12242,
                            14.685849
                        ],
                        [
                            121.122069,
                            14.685859
                        ],
                        [
                            121.121842,
                            14.686011
                        ],
                        [
                            121.121671,
                            14.686372
                        ],
                        [
                            121.120837,
                            14.686638
                        ],
                        [
                            121.121109,
                            14.685911
                        ],
                        [
                            121.121103,
                            14.685602
                        ],
                        [
                            121.120734,
                            14.685296
                        ],
                        [
                            121.120329,
                            14.684888
                        ],
                        [
                            121.119695,
                            14.684664
                        ],
                        [
                            121.119547,
                            14.684673
                        ],
                        [
                            121.119482,
                            14.684741
                        ],
                        [
                            121.119259,
                            14.685274
                        ],
                        [
                            121.119095,
                            14.685609
                        ],
                        [
                            121.118907,
                            14.685707
                        ],
                        [
                            121.118608,
                            14.685578
                        ],
                        [
                            121.118371,
                            14.685322
                        ],
                        [
                            121.118247,
                            14.685267
                        ],
                        [
                            121.117853,
                            14.685243
                        ],
                        [
                            121.117008,
                            14.684831
                        ],
                        [
                            121.116345,
                            14.684996
                        ],
                        [
                            121.11607,
                            14.684951
                        ],
                        [
                            121.115783,
                            14.684928
                        ],
                        [
                            121.115285,
                            14.685069
                        ],
                        [
                            121.114709,
                            14.685565
                        ],
                        [
                            121.114524,
                            14.68565
                        ],
                        [
                            121.114468,
                            14.685667
                        ],
                        [
                            121.114403,
                            14.685704
                        ],
                        [
                            121.11435,
                            14.685708
                        ],
                        [
                            121.114233,
                            14.685739
                        ],
                        [
                            121.113884,
                            14.685586
                        ],
                        [
                            121.113534,
                            14.685444
                        ],
                        [
                            121.113411,
                            14.685353
                        ],
                        [
                            121.11325,
                            14.68532
                        ],
                        [
                            121.112606,
                            14.684883
                        ],
                        [
                            121.112071,
                            14.684583
                        ]
                    ]
                ]
            }
        }
    ]
}